[{"OBJECT_NAME":"STARLINK-32238","OBJECT_ID":"2024-193A","EPOCH":"2026-03-09T11:48:06.637536","MEAN_MOTION":15.30192435,"ECCENTRICITY":0.00010347,"INCLINATION":53.1598,"RA_OF_ASC_NODE":92.1191,"ARG_OF_PERICENTER":83.4153,"MEAN_ANOMALY":276.6966,"EPHEMERIS_TYPE":0,"CLASSIFICATION_TYPE":"U","NORAD_CAT_ID":61661,"ELEMENT_SET_NO":999,"REV_AT_EPOCH":7649,"BSTAR":2.3049768e-5,"MEAN_MOTION_DOT":3.24e-6,"MEAN_MOTION_DDOT":0},{"OBJECT_NAME":"DELTA 1 DEB","OBJECT_ID":"1977-065EL","EPOCH":"2026-03-09T10:51:18.661248","MEAN_MOTION":14.3286909,"ECCENTRICITY":0.0430373,"INCLINATION":29.2548,"RA_OF_ASC_NODE":97.596,"ARG_OF_PERICENTER":297.4276,"MEAN_ANOMALY":58.3168,"EPHEMERIS_TYPE":0,"CLASSIFICATION_TYPE":"U","NORAD_CAT_ID":10478,"ELEMENT_SET_NO":999,"REV_AT_EPOCH":42332,"BSTAR":0.0017306922,"MEAN_MOTION_DOT":0.00013988,"MEAN_MOTION_DDOT":0}]
